HAIYANG 2A              
1 37781U 11043A   16033.43988602  .00000010  00000-0  52987-4 0  9994
2 37781  99.3423  46.2522 0000396 154.1781 205.9403 13.79303551224978
RASAT                   
1 37791U 11044D   16033.54268701  .00000116  00000-0  30952-4 0  9994
2 37791  98.1518 124.7334 0020713 256.0055 103.8848 14.64481842238491
MEGHA-TROPIQUES         
1 37838U 11058A   16032.88975807  .00000366  00000-0  57817-4 0  9995
2 37838  19.9779 291.1939 0009639 325.7993  34.1790 14.09691635222286
SRMSAT                  
1 37841U 11058D   16032.10241551  .00000314  00000-0  27782-4 0  9997
2 37841  19.9722 286.0865 0011770 326.7212 182.6835 14.10521598222318
YAOGAN 13               
1 37941U 11072A   16033.54434819  .00002519  00000-0  12693-3 0  9997
2 37941  97.4649 321.6717 0002624  71.0252  32.8888 15.18086536231717
PLEIADES 1A             
1 38012U 11076F   16033.55141404  .00000089  00000-0  28817-4 0  9993
2 38012  98.1716 109.8099 0001446  78.8811 281.2550 14.58557701219886
ZIYUAN 1-02C (ZY 1-02C) 
1 38038U 11079A   16033.50814506 -.00000756  00000-0 -24859-3 0  9993
2 38038  98.4051 106.0154 0001379 104.6143 255.5187 14.35409925215673
ZIYUAN 3 (ZY 3)         
1 38046U 12001A   16033.52752855  .00002264  00000-0  10421-3 0  9992
2 38046  97.3433 107.9522 0001231  64.6086  49.5830 15.21312248225833
RISAT 1                 
1 38248U 12017A   16033.44240323 -.00004995  00000-0 -31324-3 0  9996
2 38248  97.5631  42.0344 0003839 339.1480 149.9879 15.08903450207726
ARIRANG-3 (KOMPSAT-3)   
1 38338U 12025B   16033.51703201  .00000156  00000-0  40962-4 0  9994
2 38338  98.1518 332.4061 0011138  96.7870 263.4592 14.61355162198057
KANOPUS-V 1             
1 38707U 12039A   16033.54317630 -.00021088  00000-0 -97761-3 0  9996
2 38707  97.4698 311.6476 0001652  87.5085 358.6535 15.20067783196016
SPOT 6                  
1 38755U 12047A   16033.49969106  .00000078  00000-0  26652-4 0  9999
2 38755  98.2017 102.4710 0001322  88.1565 271.9786 14.58553745180953
PLEIADES 1B             
1 39019U 12068A   16033.51739181  .00000085  00000-0  28136-4 0  9994
2 39019  98.1772 109.8152 0001275  75.7034 284.4309 14.58560756168737
GOKTURK 2               
1 39030U 12073A   16033.51312520  .00000095  00000-0  26313-4 0  9993
2 39030  98.0496 289.1714 0012968 270.5243  89.4477 14.65631651167027
LANDSAT 8               
1 39084U 13008A   16032.66481068  .00000174  00000-0  48558-4 0  9993
2 39084  98.2021 104.3973 0001326  92.5685 267.5665 14.57117705158023
SARAL                   
1 39086U 13009A   16032.51310215  .00000051  00000-0  34914-4 0  9990
2 39086  98.5397 221.8790 0001584  60.2340 299.9001 14.32248726153302
GAOFEN 1                
1 39150U 13018A   16033.43868450  .00000224  00000-0  39491-4 0  9990
2 39150  97.9846 117.7594 0017673 226.6703 133.3033 14.76474216149357
VNREDSAT 1              
1 39160U 13021B   16033.53656446  .00000193  00000-0  46820-4 0  9995
2 39160  98.1296 112.1276 0001362  94.2061 265.9297 14.62948699146403
ARIRANG-5 (KOMPSAT-5)   
1 39227U 13042A   16032.72730730 -.00000060  00000-0  23816-7 0  9998
2 39227  97.6005 219.6069 0001969  77.1846 342.7051 15.04525236134297
SKYSAT-1                
1 39418U 13066C   16033.52261310  .00001425  00000-0  12529-3 0  9998
2 39418  97.7394 116.0149 0022208 159.4209 200.7918 14.97969930120111
DUBAISAT-2              
1 39419U 13066D   16033.55556583  .00000391  00000-0  42832-4 0  9993
2 39419  97.7293 110.3059 0015053 132.1633 228.0883 14.93106111119781
GPM-CORE                
1 39574U 14009C   16032.83383779  .00010713  00000-0  15206-3 0  9991
2 39574  65.0121 184.8262 0009938 277.3288  82.6729 15.56817267109532
SENTINEL-1A             
1 39634U 14016A   16033.41289589 -.00000222  00000-0 -37398-4 0  9998
2 39634  98.1817  42.1967 0001260  77.9294 282.2056 14.59197000 97666
KAZEOSAT 1              
1 39731U 14024A   16033.50439332  .00000051  00000-0  28801-4 0  9995
2 39731  98.4637 112.1377 0001336  83.9303 276.2041 14.41996354 92732
ALOS-2                  
1 39766U 14029A   16033.56430748  .00000386  00000-0  58530-4 0  9999
2 39766  97.9204 132.0937 0001441  93.4444 266.6945 14.79474732 91586
KAZEOSAT 2              
1 40010U 14033A   16033.37171807 -.00003444  00000-0 -42603-3 0  9998
2 40010  97.9366 294.6816 0018793 104.1068 256.2300 14.82030620 87763
HODOYOSHI-4             
1 40011U 14033B   16033.56378035  .00000347  00000-0  51926-4 0  9998
2 40011  97.9319 292.8266 0028500  96.3019 264.1446 14.80573480 87679
DEIMOS-2                
1 40013U 14033D   16033.57678229  .00000539  00000-0  70343-4 0  9996
2 40013  97.9211 295.9802 0001920 109.1112 251.0321 14.84490200 87923
HODOYOSHI-3             
1 40015U 14033F   16033.50905882  .00000428  00000-0  65848-4 0  9990
2 40015  97.9281 290.2196 0038718  95.9860 264.5765 14.77947039 87529
SPOT 7                  
1 40053U 14034A   16033.46422520 -.00000046  00000-0  00000+0 0  9992
2 40053  98.2170 102.0482 0000983  92.2553 267.8764 14.58539175 84880
SKYSAT-2                
1 40072U 14037D   16033.52182534  .00000242  00000-0  38873-4 0  9992
2 40072  98.3365 119.2932 0005756 209.7544 150.3343 14.80740158 84885
WORLDVIEW-3 (WV-3)      
1 40115U 14048A   16033.49686058  .00000309  00000-0  42425-4 0  9990
2 40115  97.9143 112.5309 0001431 106.8775 253.2596 14.85153475 79809
YAOGAN 21               
1 40143U 14053A   16033.56532913  .00003213  00000-0  13016-3 0  9995
2 40143  97.3621 110.6671 0011394 164.3144 302.9068 15.25333251 78110
YAOGAN 22               
1 40275U 14063A   16033.48232340 -.00000044  00000-0  00000+0 0  9999
2 40275 100.3671 150.4031 0006687 133.3026 226.8645 13.15305469 61813
ASNARO                  
1 40298U 14070A   16033.56101902  .00003646  00000-0  17410-3 0  9997
2 40298  97.4428 117.6905 0001762  93.6960  20.3024 15.19669765 68838
HODOYOSHI-1             
1 40299U 14070B   16033.55277205  .00002175  00000-0  10183-3 0  9993
2 40299  97.4393 117.2080 0015069  50.1789  64.5202 15.20708959 68819
CHUBUSAT-1              
1 40300U 14070C   16033.56225363  .00002297  00000-0  11187-3 0  9995
2 40300  97.4354 115.8270 0022846  53.8312  58.5797 15.19153029 68730
QSAT-EOS                
1 40301U 14070D   16033.54080936  .00004418  00000-0  20689-3 0  9993
2 40301  97.4305 115.0284 0031370  53.9276  70.9172 15.19800386 68691
TSUBAME                 
1 40302U 14070E   16033.51360661  .00002162  00000-0  11817-3 0  9994
2 40302  97.4267 112.2028 0043119  62.1554  64.0620 15.14570085 68517
YAOGAN 23               
1 40305U 14071A   16033.57757006  .00002594  00000-0  13047-3 0  9993
2 40305  97.3814 336.3390 0002729  81.9453  25.0717 15.18101728 67484
YAOGAN 24               
1 40310U 14072A   16033.37857387  .00000281  00000-0  47260-4 0  9997
2 40310  97.9515 153.2345 0015818 242.8569 117.1037 14.76892457 64797
CBERS-4                 
1 40336U 14079A   16033.52156154  .00000048  00000-0  31896-4 0  9992
2 40336  98.5041 110.7752 0001641  91.3801 268.7576 14.35438757 60589
RESURS P2               
1 40360U 14087A   16033.56701542  .00001879  00000-0  62109-4 0  9993
2 40360  97.2842 129.6145 0010307   1.7903  52.5964 15.32564680 61734
YAOGAN 26               
1 40362U 14088A   16033.55221321  .00003876  00000-0  15018-3 0  9992
2 40362  97.3987 112.6510 0003866  11.4641 101.2095 15.26747740 61385
SMAP                    
1 40376U 15003A   16033.46600762  .00000163  00000-0  40692-4 0  9998
2 40376  98.1244  42.5178 0001303  61.6781 298.4560 14.63346019 53664
KOMPSAT 3A              
1 40536U 15014A   16033.55089692  .00001565  00000-0  94946-4 0  9999
2 40536  97.5437 334.6116 0010419 281.1967 194.8592 15.11963786 47396
SENTINEL-2A             
1 40697U 15028A   16032.36131353  .00000096  00000-0  53263-4 0  9997
2 40697  98.5677 108.5105 0001150 101.6568 258.4746 14.30816878 31932
CARBONITE 1 (CBNT-1)    
1 40718U 15032D   16033.12043253  .00000017  00000-0  10242-4 0  9995
2 40718  98.0273 285.5559 0015788 308.8448  51.1377 14.74358086 30412
YAOGAN 27               
1 40878U 15040A   16033.51060446 -.00000045  00000-0  00000+0 0  9995
2 40878 100.4693  95.3361 0007957 271.7018  88.3186 13.15945706 20965
LAPAN-A2                
1 40931U 15052B   16033.43724671  .00000788  00000-0  20828-4 0  9994
2 40931   5.9966 202.8935 0013849 357.0505   2.9568 14.76415702 18830
YAOGAN 28               
1 41026U 15064A   16033.53095622  .00004209  00000-0  14657-3 0  9995
2 41026  97.2521 164.9605 0007062 304.8926 181.8681 15.30194435 13191
YAOGAN 29               
1 41038U 15069A   16033.53071504  .00000149  00000-0  26263-4 0  9992
2 41038  97.8473  19.2593 0002000  68.5188 291.6240 14.80258276 10012
JASON-3                 
1 41240U 16002A   16031.81075643 -.00000062  00000-0  00000+0 0  9993
2 41240  66.0395  85.5426 0008170 269.1590  65.6048 12.84794862  1809
